STARLINK-30573          
1 58058U 23158H   26068.24978116  .00001415  00000+0  60948-4 0  9996
2 58058  43.0041  29.4484 0001533 272.0241  88.0435 15.27573073133501
PHISAT 2                
1 60470U 24149C   26068.78834181  .00008925  00000+0  31421-3 0  9996
2 60470  97.3806 148.6498 0001175 168.6230 191.5037 15.29548631 86792
